{
  "links" : {
    "next" : "https://api.nasa.gov/neo/rest/v1/feed?start_date=2007-02-09&end_date=2007-02-09&detailed=true&api_key=t0TVs3DtDT2H8Oy2Zy8m2eVrNsAVKAexjcZXUckd",
    "prev" : "https://api.nasa.gov/neo/rest/v1/feed?start_date=2007-02-07&end_date=2007-02-07&detailed=true&api_key=t0TVs3DtDT2H8Oy2Zy8m2eVrNsAVKAexjcZXUckd",
    "self" : "https://api.nasa.gov/neo/rest/v1/feed?start_date=2007-02-08&end_date=2007-02-08&detailed=true&api_key=t0TVs3DtDT2H8Oy2Zy8m2eVrNsAVKAexjcZXUckd"
  },
  "element_count" : 6,
  "near_earth_objects" : {
    "2007-02-08" : [ {
      "links" : {
        "self" : "https://api.nasa.gov/neo/rest/v1/neo/3366807?api_key=t0TVs3DtDT2H8Oy2Zy8m2eVrNsAVKAexjcZXUckd"
      },
      "neo_reference_id" : "3366807",
      "name" : "(2007 BD7)",
      "nasa_jpl_url" : "http://ssd.jpl.nasa.gov/sbdb.cgi?sstr=3366807",
      "absolute_magnitude_h" : 21.1,
      "estimated_diameter" : {
        "kilometers" : {
          "estimated_diameter_min" : 0.160160338,
          "estimated_diameter_max" : 0.358129403
        },
        "meters" : {
          "estimated_diameter_min" : 160.1603379786,
          "estimated_diameter_max" : 358.1294030194
        },
        "miles" : {
          "estimated_diameter_min" : 0.0995189894,
          "estimated_diameter_max" : 0.2225312253
        },
        "feet" : {
          "estimated_diameter_min" : 525.4604432536,
          "estimated_diameter_max" : 1174.9652706022
        }
      },
      "is_potentially_hazardous_asteroid" : true,
      "close_approach_data" : [ {
        "close_approach_date" : "2007-02-08",
        "epoch_date_close_approach" : 1170921600000,
        "relative_velocity" : {
          "kilometers_per_second" : "12.710186619",
          "kilometers_per_hour" : "45756.6718284169",
          "miles_per_hour" : "28431.4164480516"
        },
        "miss_distance" : {
          "astronomical" : "0.0437093985",
          "lunar" : "17.0029563904",
          "kilometers" : "6538833",
          "miles" : "4063042.25"
        },
        "orbiting_body" : "Earth"
      } ],
      "orbital_data" : {
        "orbit_id" : "22",
        "orbit_determination_date" : "2017-04-06 09:07:11",
        "orbit_uncertainty" : "8",
        "minimum_orbit_intersection" : ".0379223",
        "jupiter_tisserand_invariant" : "4.279",
        "epoch_osculation" : "2454128.5",
        "eccentricity" : ".4979841596501932",
        "semi_major_axis" : "1.561530932603412",
        "inclination" : "4.843713852050041",
        "ascending_node_longitude" : "343.7958896651725",
        "orbital_period" : "712.7288101730059",
        "perihelion_distance" : ".7839132633631192",
        "perihelion_argument" : "219.7008866044472",
        "aphelion_distance" : "2.339148601843704",
        "perihelion_time" : "2454183.987778348436",
        "mean_anomaly" : "331.9730703735855",
        "mean_motion" : ".5051009512476626",
        "equinox" : "J2000"
      }
    }, {
      "links" : {
        "self" : "https://api.nasa.gov/neo/rest/v1/neo/3366886?api_key=t0TVs3DtDT2H8Oy2Zy8m2eVrNsAVKAexjcZXUckd"
      },
      "neo_reference_id" : "3366886",
      "name" : "(2007 BC8)",
      "nasa_jpl_url" : "http://ssd.jpl.nasa.gov/sbdb.cgi?sstr=3366886",
      "absolute_magnitude_h" : 22.5,
      "estimated_diameter" : {
        "kilometers" : {
          "estimated_diameter_min" : 0.0840533402,
          "estimated_diameter_max" : 0.1879489824
        },
        "meters" : {
          "estimated_diameter_min" : 84.0533402073,
          "estimated_diameter_max" : 187.9489824394
        },
        "miles" : {
          "estimated_diameter_min" : 0.0522283081,
          "estimated_diameter_max" : 0.1167860472
        },
        "feet" : {
          "estimated_diameter_min" : 275.7655606856,
          "estimated_diameter_max" : 616.6305395464
        }
      },
      "is_potentially_hazardous_asteroid" : false,
      "close_approach_data" : [ {
        "close_approach_date" : "2007-02-08",
        "epoch_date_close_approach" : 1170921600000,
        "relative_velocity" : {
          "kilometers_per_second" : "7.8058886245",
          "kilometers_per_hour" : "28101.1990481328",
          "miles_per_hour" : "17460.9922641023"
        },
        "miss_distance" : {
          "astronomical" : "0.0872813317",
          "lunar" : "33.9524383545",
          "kilometers" : "13057101",
          "miles" : "8113306.5"
        },
        "orbiting_body" : "Earth"
      } ],
      "orbital_data" : {
        "orbit_id" : "15",
        "orbit_determination_date" : "2017-04-06 09:07:10",
        "orbit_uncertainty" : "7",
        "minimum_orbit_intersection" : ".0409271",
        "jupiter_tisserand_invariant" : "3.626",
        "epoch_osculation" : "2458000.5",
        "eccentricity" : ".4994726165857639",
        "semi_major_axis" : "2.049459438871542",
        "inclination" : "2.174579358585188",
        "ascending_node_longitude" : "10.91932272974679",
        "orbital_period" : "1071.660980495196",
        "perihelion_distance" : "1.025810570351981",
        "perihelion_argument" : "147.7906566530908",
        "aphelion_distance" : "3.073108307391102",
        "perihelion_time" : "2458439.194592078345",
        "mean_anomaly" : "212.6305837175976",
        "mean_motion" : ".3359271323228081",
        "equinox" : "J2000"
      }
    }, {
      "links" : {
        "self" : "https://api.nasa.gov/neo/rest/v1/neo/3368403?api_key=t0TVs3DtDT2H8Oy2Zy8m2eVrNsAVKAexjcZXUckd"
      },
      "neo_reference_id" : "3368403",
      "name" : "(2007 DC)",
      "nasa_jpl_url" : "http://ssd.jpl.nasa.gov/sbdb.cgi?sstr=3368403",
      "absolute_magnitude_h" : 27.5,
      "estimated_diameter" : {
        "kilometers" : {
          "estimated_diameter_min" : 0.008405334,
          "estimated_diameter_max" : 0.0187948982
        },
        "meters" : {
          "estimated_diameter_min" : 8.4053340207,
          "estimated_diameter_max" : 18.7948982439
        },
        "miles" : {
          "estimated_diameter_min" : 0.0052228308,
          "estimated_diameter_max" : 0.0116786047
        },
        "feet" : {
          "estimated_diameter_min" : 27.5765560686,
          "estimated_diameter_max" : 61.6630539546
        }
      },
      "is_potentially_hazardous_asteroid" : false,
      "close_approach_data" : [ {
        "close_approach_date" : "2007-02-08",
        "epoch_date_close_approach" : 1170921600000,
        "relative_velocity" : {
          "kilometers_per_second" : "6.8646162417",
          "kilometers_per_hour" : "24712.6184700193",
          "miles_per_hour" : "15355.4600709962"
        },
        "miss_distance" : {
          "astronomical" : "0.0041994334",
          "lunar" : "1.633579731",
          "kilometers" : "628226.3125",
          "miles" : "390361.75"
        },
        "orbiting_body" : "Earth"
      } ],
      "orbital_data" : {
        "orbit_id" : "8",
        "orbit_determination_date" : "2017-04-06 09:07:00",
        "orbit_uncertainty" : "8",
        "minimum_orbit_intersection" : ".00415614",
        "jupiter_tisserand_invariant" : "4.806",
        "epoch_osculation" : "2454150.5",
        "eccentricity" : ".3260668216581827",
        "semi_major_axis" : "1.354617084272307",
        "inclination" : ".4099891059170518",
        "ascending_node_longitude" : "174.8732905669215",
        "orbital_period" : "575.8684024835197",
        "perihelion_distance" : ".9129213970397613",
        "perihelion_argument" : "278.0736176658544",
        "aphelion_distance" : "1.796312771504853",
        "perihelion_time" : "2454102.460741163067",
        "mean_anomaly" : "30.03139798383156",
        "mean_motion" : ".6251428250750439",
        "equinox" : "J2000"
      }
    } ]
  }
}